{"type": "FeatureCollection", "features": [ {"type": "Feature", "properties": {"norad_id": 30516, "name": "FENGYUN 1C DEB", "group": "fengyun-1c-debris", "lat": -2.413179885848786, "lon": 106.46697207283508, "alt_km": 759.2186104756256, "timestamp": "2025-12-27T12:55:14.782409+00:00", "meta": {"OBJECT_NAME": "FENGYUN 1C DEB", "OBJECT_ID": "1999-025AJE", "EPOCH": "2025-12-27T06:31:15.341376", "MEAN_MOTION": 14.41539102, "ECCENTRICITY": 0.00105288, "INCLINATION": 98.856, "RA_OF_ASC_NODE": 105.8142, "ARG_OF_PERICENTER": 248.4223, "MEAN_ANOMALY": 166.0872, "EPHEMERIS_TYPE": 0, "CLASSIFICATION_TYPE": "U", "NORAD_CAT_ID": 30516, "ELEMENT_SET_NO": 999, "REV_AT_EPOCH": 97924, "BSTAR": 0.0025259795, "MEAN_MOTION_DOT": 8.176e-05, "MEAN_MOTION_DDOT": 0}, "tle": {"line1": "1 30516U 99025AJE 25361.27170534  .00008176  00000+0  25260-2 0  9994", "line2": "2 30516  98.8560 105.8142 0010528 248.4223 166.0872 14.41539102979246"}}, "geometry": {"type": "Point", "coordinates": [106.46697207283508, -2.413179885848786]}}, {"type": "Feature", "properties": {"norad_id": 30520, "name": "FENGYUN 1C DEB", "group": "fengyun-1c-debris", "lat": 38.98297578033521, "lon": 169.35238930818113, "alt_km": 471.8606960662055, "timestamp": "2025-12-27T12:55:14.782419+00:00", "meta": {"OBJECT_NAME": "FENGYUN 1C DEB", "OBJECT_ID": "1999-025AJJ", "EPOCH": "2025-12-26T11:22:49.177056", "MEAN_MOTION": 15.14587725, "ECCENTRICITY": 0.0069889, "INCLINATION": 98.7191, "RA_OF_ASC_NODE": 175.2685, "ARG_OF_PERICENTER": 54.2615, "MEAN_ANOMALY": 306.5087, "EPHEMERIS_TYPE": 0, "CLASSIFICATION_TYPE": "U", "NORAD_CAT_ID": 30520, "ELEMENT_SET_NO": 999, "REV_AT_EPOCH": 1249, "BSTAR": 0.00093829, "MEAN_MOTION_DOT": 0.00018356, "MEAN_MOTION_DDOT": 0}, "tle": {"line1": "1 30520U 99025AJJ 25360.47418029  .00018356  00000+0  93829-3 0  9992", "line2": "2 30520  98.7191 175.2685 0069889  54.2615 306.5087 15.14587725 12494"}}, "geometry": {"type": "Point", "coordinates": [169.35238930818113, 38.98297578033521]}}, {"type": "Feature", "properties": {"norad_id": 30521, "name": "FENGYUN 1C DEB", "group": "fengyun-1c-debris", "lat": 74.77214212838082, "lon": -6.470513344626266, "alt_km": 700.5055538944762, "timestamp": "2025-12-27T12:55:14.782429+00:00", "meta": {"OBJECT_NAME": "FENGYUN 1C DEB", "OBJECT_ID": "1999-025AJK", "EPOCH": "2025-12-27T07:30:14.546304", "MEAN_MOTION": 14.5837981, "ECCENTRICITY": 0.01358926, "INCLINATION": 98.9889, "RA_OF_ASC_NODE": 137.7303, "ARG_OF_PERICENTER": 199.2989, "MEAN_ANOMALY": 160.3033, "EPHEMERIS_TYPE": 0, "CLASSIFICATION_TYPE": "U", "NORAD_CAT_ID": 30521, "ELEMENT_SET_NO": 999, "REV_AT_EPOCH": 99794, "BSTAR": 0.0010785637, "MEAN_MOTION_DOT": 5.619e-05, "MEAN_MOTION_DDOT": 0}, "tle": {"line1": "1 30521U 99025AJK 25361.31266836  .00005619  00000+0  10786-2 0  9992", "line2": "2 30521  98.9889 137.7303 0135892 199.2989 160.3033 14.58379810997943"}}, "geometry": {"type": "Point", "coordinates": [-6.470513344626266, 74.77214212838082]}}, {"type": "Feature", "properties": {"norad_id": 30523, "name": "FENGYUN 1C DEB", "group": "fengyun-1c-debris", "lat": -18.768012766922162, "lon": 156.53460508571592, "alt_km": 922.3636941701252, "timestamp": "2025-12-27T12:55:14.782439+00:00", "meta": {"OBJECT_NAME": "FENGYUN 1C DEB", "OBJECT_ID": "1999-025AJM", "EPOCH": "2025-12-26T16:38:20.896224", "MEAN_MOTION": 14.27950485, "ECCENTRICITY": 0.02440952, "INCLINATION": 98.4673, "RA_OF_ASC_NODE": 338.6159, "ARG_OF_PERICENTER": 67.6652, "MEAN_ANOMALY": 107.4633, "EPHEMERIS_TYPE": 0, "CLASSIFICATION_TYPE": "U", "NORAD_CAT_ID": 30523, "ELEMENT_SET_NO": 999, "REV_AT_EPOCH": 98299, "BSTAR": 0.00027343825, "MEAN_MOTION_DOT": 8.85e-06, "MEAN_MOTION_DDOT": 0}, "tle": {"line1": "1 30523U 99025AJM 25360.69329741  .00000885  00000+0  27344-3 0  9998", "line2": "2 30523  98.4673 338.6159 0244095  67.6652 107.4633 14.27950485982999"}}, "geometry": {"type": "Point", "coordinates": [156.53460508571592, -18.768012766922162]}}, {"type": "Feature", "properties": {"norad_id": 30524, "name": "FENGYUN 1C DEB", "group": "fengyun-1c-debris", "lat": 59.837828404168135, "lon": 157.33187519090868, "alt_km": 1043.768379351115, "timestamp": "2025-12-27T12:55:14.782469+00:00", "meta": {"OBJECT_NAME": "FENGYUN 1C DEB", "OBJECT_ID": "1999-025AJN", "EPOCH": "2025-12-26T10:44:50.070336", "MEAN_MOTION": 13.92395723, "ECCENTRICITY": 0.0207261, "INCLINATION": 99.3093, "RA_OF_ASC_NODE": 172.6304, "ARG_OF_PERICENTER": 213.6218, "MEAN_ANOMALY": 145.1647, "EPHEMERIS_TYPE": 0, "CLASSIFICATION_TYPE": "U", "NORAD_CAT_ID": 30524, "ELEMENT_SET_NO": 999, "REV_AT_EPOCH": 94076, "BSTAR": 0.0048228, "MEAN_MOTION_DOT": 7.354e-05, "MEAN_MOTION_DDOT": 0}, "tle": {"line1": "1 30524U 99025AJN 25360.44780174  .00007354  00000+0  48228-2 0  9994", "line2": "2 30524  99.3093 172.6304 0207261 213.6218 145.1647 13.92395723940761"}}, "geometry": {"type": "Point", "coordinates": [157.33187519090868, 59.837828404168135]}}, {"type": "Feature", "properties": {"norad_id": 30525, "name": "FENGYUN 1C DEB", "group": "fengyun-1c-debris", "lat": -48.7038178130247, "lon": -105.23553932019975, "alt_km": 877.6662593323972, "timestamp": "2025-12-27T12:55:14.782482+00:00", "meta": {"OBJECT_NAME": "FENGYUN 1C DEB", "OBJECT_ID": "1999-025AJP", "EPOCH": "2025-12-22T14:44:27.573792", "MEAN_MOTION": 13.58630469, "ECCENTRICITY": 0.0292823, "INCLINATION": 98.6026, "RA_OF_ASC_NODE": 240.5159, "ARG_OF_PERICENTER": 283.8011, "MEAN_ANOMALY": 73.0709, "EPHEMERIS_TYPE": 0, "CLASSIFICATION_TYPE": "U", "NORAD_CAT_ID": 30525, "ELEMENT_SET_NO": 999, "REV_AT_EPOCH": 93251, "BSTAR": 0.0012949, "MEAN_MOTION_DOT": 1.212e-05, "MEAN_MOTION_DDOT": 0}, "tle": {"line1": "1 30525U 99025AJP 25356.61420803  .00001212  00000+0  12949-2 0  9997", "line2": "2 30525  98.6026 240.5159 0292823 283.8011  73.0709 13.58630469932514"}}, "geometry": {"type": "Point", "coordinates": [-105.23553932019975, -48.7038178130247]}}, {"type": "Feature", "properties": {"norad_id": 30526, "name": "FENGYUN 1C DEB", "group": "fengyun-1c-debris", "lat": -12.404115653757303, "lon": -98.91038809667046, "alt_km": 887.7820522378452, "timestamp": "2025-12-27T12:55:14.782494+00:00", "meta": {"OBJECT_NAME": "FENGYUN 1C DEB", "OBJECT_ID": "1999-025AJQ", "EPOCH": "2025-12-27T04:49:55.708608", "MEAN_MOTION": 13.499345, "ECCENTRICITY": 0.03070385, "INCLINATION": 99.5463, "RA_OF_ASC_NODE": 82.8872, "ARG_OF_PERICENTER": 228.6266, "MEAN_ANOMALY": 128.8094, "EPHEMERIS_TYPE": 0, "CLASSIFICATION_TYPE": "U", "NORAD_CAT_ID": 30526, "ELEMENT_SET_NO": 999, "REV_AT_EPOCH": 92853, "BSTAR": 0.0011875335, "MEAN_MOTION_DOT": 9.67e-06, "MEAN_MOTION_DDOT": 0}, "tle": {"line1": "1 30526U 99025AJQ 25361.20133922  .00000967  00000+0  11875-2 0  9995", "line2": "2 30526  99.5463  82.8872 0307038 228.6266 128.8094 13.49934500928539"}}, "geometry": {"type": "Point", "coordinates": [-98.91038809667046, -12.404115653757303]}}, {"type": "Feature", "properties": {"norad_id": 30527, "name": "FENGYUN 1C DEB", "group": "fengyun-1c-debris", "lat": 0.5758596847169384, "lon": -135.27907257097547, "alt_km": 840.6579650790391, "timestamp": "2025-12-27T12:55:14.782505+00:00", "meta": {"OBJECT_NAME": "FENGYUN 1C DEB", "OBJECT_ID": "1999-025AJR", "EPOCH": "2025-12-27T01:21:12.451968", "MEAN_MOTION": 13.31064901, "ECCENTRICITY": 0.04136702, "INCLINATION": 100.0627, "RA_OF_ASC_NODE": 44.1464, "ARG_OF_PERICENTER": 192.5785, "MEAN_ANOMALY": 199.3072, "EPHEMERIS_TYPE": 0, "CLASSIFICATION_TYPE": "U", "NORAD_CAT_ID": 30527, "ELEMENT_SET_NO": 999, "REV_AT_EPOCH": 91547, "BSTAR": 0.0015074414, "MEAN_MOTION_DOT": 1.107e-05, "MEAN_MOTION_DDOT": 0}, "tle": {"line1": "1 30527U 99025AJR 25361.05639412  .00001107  00000+0  15074-2 0  9996", "line2": "2 30527 100.0627  44.1464 0413670 192.5785 199.3072 13.31064901915471"}}, "geometry": {"type": "Point", "coordinates": [-135.27907257097547, 0.5758596847169384]}}, {"type": "Feature", "properties": {"norad_id": 30528, "name": "FENGYUN 1C DEB", "group": "fengyun-1c-debris", "lat": -60.163156703070136, "lon": 35.352456469534594, "alt_km": 798.5044450695186, "timestamp": "2025-12-27T12:55:14.782515+00:00", "meta": {"OBJECT_NAME": "FENGYUN 1C DEB", "OBJECT_ID": "1999-025AJS", "EPOCH": "2025-12-26T21:07:02.335296", "MEAN_MOTION": 14.13513395, "ECCENTRICITY": 0.0144096, "INCLINATION": 98.237, "RA_OF_ASC_NODE": 229.3742, "ARG_OF_PERICENTER": 184.8879, "MEAN_ANOMALY": 306.0198, "EPHEMERIS_TYPE": 0, "CLASSIFICATION_TYPE": "U", "NORAD_CAT_ID": 30528, "ELEMENT_SET_NO": 999, "REV_AT_EPOCH": 97337, "BSTAR": 0.00036166, "MEAN_MOTION_DOT": 7.13e-06, "MEAN_MOTION_DDOT": 0}, "tle": {"line1": "1 30528U 99025AJS 25360.87988814  .00000713  00000+0  36166-3 0  9997", "line2": "2 30528  98.2370 229.3742 0144096 184.8879 306.0198 14.13513395973378"}}, "geometry": {"type": "Point", "coordinates": [35.352456469534594, -60.163156703070136]}}, {"type": "Feature", "properties": {"norad_id": 30529, "name": "FENGYUN 1C DEB", "group": "fengyun-1c-debris", "lat": 33.56801175257143, "lon": -83.96607702428803, "alt_km": 1134.8169541878951, "timestamp": "2025-12-27T12:55:14.782526+00:00", "meta": {"OBJECT_NAME": "FENGYUN 1C DEB", "OBJECT_ID": "1999-025AJT", "EPOCH": "2025-12-24T05:57:54.130752", "MEAN_MOTION": 13.71625376, "ECCENTRICITY": 0.02299744, "INCLINATION": 98.487, "RA_OF_ASC_NODE": 278.8069, "ARG_OF_PERICENTER": 191.2594, "MEAN_ANOMALY": 168.336, "EPHEMERIS_TYPE": 0, "CLASSIFICATION_TYPE": "U", "NORAD_CAT_ID": 30529, "ELEMENT_SET_NO": 999, "REV_AT_EPOCH": 94166, "BSTAR": 0.00090368707, "MEAN_MOTION_DOT": 9.47e-06, "MEAN_MOTION_DDOT": 0}, "tle": {"line1": "1 30529U 99025AJT 25358.24854318  .00000947  00000+0  90369-3 0  9991", "line2": "2 30529  98.4870 278.8069 0229974 191.2594 168.3360 13.71625376941665"}}, "geometry": {"type": "Point", "coordinates": [-83.96607702428803, 33.56801175257143]}}]}